NORAD_CAT_ID,OBJECT_NAME,OBJECT_TYPE,EPOCH,MEAN_MOTION,ECCENTRICITY,INCLINATION,RA_OF_ASC_NODE,ARG_OF_PERICENTER,MEAN_ANOMALY,BSTAR,MEAN_MOTION_DOT,MEAN_MOTION_DDOT,TLE_LINE0,TLE_LINE1,TLE_LINE2,SEMIMAJOR_AXIS,PERIOD,APOGEE,PERIGEE,DECAYED
49417.0,STARLINK-3154,PAYLOAD,2023-10-05 22:00:00,15.08865222,0.0001499,53.2161,235.1618,95.6613,320.2767,0.0021198,0.00033633,0.0,0 STARLINK-3154,1 49417U 21104K   23278.91667824  .00033633  00000-0  21198-2 0  9999,2 49417  53.2161 235.1618 0001499  95.6613 320.2767 15.08865222  5757,6917.803,95.436,540.705,538.631,0.0
49417.0,STARLINK-3154,PAYLOAD,2023-10-06 14:00:01,15.08798245,0.0001467,53.2158,232.1693,80.3353,358.9069,0.0009233,0.0001442,0.0,0 STARLINK-3154,1 49417U 21104K   23279.58335648  .00014420  00000-0  92330-3 0  9999,2 49417  53.2158 232.1693 0001467  80.3353 358.9069 15.08798245106250,6918.008,95.44,540.888,538.858,0.0
49417.0,STARLINK-3154,PAYLOAD,2023-10-06 22:00:01,15.08822926,0.0001473,53.2159,230.6728,86.1241,4.6564,0.0018838,0.00029806,0.0,0 STARLINK-3154,1 49417U 21104K   23279.91668981  .00029806  00000-0  18838-2 0  9999,2 49417  53.2159 230.6728 0001473  86.1241   4.6564 15.08822926  5853,6917.933,95.439,540.817,538.779,0.0
49417.0,STARLINK-3154,PAYLOAD,2023-10-07 14:00:01,15.08823474,0.000142,53.2154,227.6805,93.4331,20.4504,0.0013469,0.00021203,0.0,0 STARLINK-3154,1 49417U 21104K   23280.58334491  .00021203  00000-0  13469-2 0  9998,2 49417  53.2154 227.6805 0001420  93.4331  20.4504 15.08823474  5740,6917.931,95.439,540.778,538.814,0.0
49417.0,STARLINK-3154,PAYLOAD,2023-10-07 22:00:00,15.08861712,0.0001426,53.2154,226.184,97.2687,28.1927,0.00077787,0.00012121,0.0,0 STARLINK-3154,1 49417U 21104K   23280.91667824  .00012121  00000-0  77787-3 0  9997,2 49417  53.2154 226.1840 0001426  97.2687  28.1927 15.08861712106456,6917.814,95.436,540.666,538.693,0.0
49417.0,STARLINK-3154,PAYLOAD,2023-10-08 13:20:38,15.08847545,0.0001776,53.2169,223.3128,85.7361,274.3834,7.0685e-05,8.37e-06,0.0,0 STARLINK-3154,1 49417U 21104K   23281.55600654  .00000837  00000-0  70685-4 0  9998,2 49417  53.2169 223.3128 0001776  85.7361 274.3834 15.08847545105447,6917.857,95.437,540.951,538.494,0.0
49417.0,STARLINK-3154,PAYLOAD,2023-10-09 02:03:44,15.08841571,0.0001797,53.2181,220.933,78.5563,281.5631,0.00016733,2.376e-05,0.0,0 STARLINK-3154,1 49417U 21104K   23282.08593074  .00002376  00000-0  16733-3 0  9997,2 49417  53.2181 220.9330 0001797  78.5563 281.5631 15.08841571106636,6917.876,95.437,540.984,538.497,0.0
49417.0,STARLINK-3154,PAYLOAD,2023-10-09 05:14:30,15.08854534,0.0001507,53.2168,220.3382,83.9582,276.1582,0.00035743,5.407e-05,0.0,0 STARLINK-3154,1 49417U 21104K   23282.21840327  .00005407  00000-0  35743-3 0  9998,2 49417  53.2168 220.3382 0001507  83.9582 276.1582 15.08854534106652,6917.836,95.437,540.743,538.658,0.0
49417.0,STARLINK-3154,PAYLOAD,2023-10-09 19:32:59,15.08836207,0.0001139,53.2168,217.6626,108.441,251.6706,-0.00016059,-2.842e-05,0.0,0 STARLINK-3154,1 49417U 21104K   23282.81457352 -.00002842  00000-0 -16059-3 0  9997,2 49417  53.2168 217.6626 0001139 108.4410 251.6706 15.08836207105636,6917.892,95.438,540.545,538.969,0.0
49417.0,STARLINK-3154,PAYLOAD,2023-10-10 01:54:31,15.08844611,0.0001545,53.2158,216.4742,111.3637,248.752,-2.2746e-05,-6.5e-06,0.0,0 STARLINK-3154,1 49417U 21104K   23283.07952923 -.00000650  00000-0 -22746-4 0  9996,2 49417  53.2158 216.4742 0001545 111.3637 248.7520 15.08844611106782,6917.866,95.437,540.8,538.662,0.0
49417.0,STARLINK-3154,PAYLOAD,2023-10-10 05:05:17,15.08855248,0.0001458,53.2172,215.8778,106.2452,253.87,0.00016868,2.399e-05,0.0,0 STARLINK-3154,1 49417U 21104K   23283.21200467  .00002399  00000-0  16868-3 0  9998,2 49417  53.2172 215.8778 0001458 106.2452 253.8700 15.08855248106809,6917.834,95.437,540.707,538.69,0.0
49417.0,STARLINK-3154,PAYLOAD,2023-10-10 13:02:13,15.08828703,0.0001847,53.2173,214.3907,95.0742,265.0461,-0.00013679,-2.464e-05,0.0,0 STARLINK-3154,1 49417U 21104K   23283.54321729 -.00002464  00000-0 -13679-3 0  9991,2 49417  53.2173 214.3907 0001847  95.0742 265.0461 15.08828703105744,6917.915,95.438,541.058,538.502,0.0
49417.0,STARLINK-3154,PAYLOAD,2023-10-11 04:56:05,15.08834737,0.0001428,53.2167,211.418,96.9814,263.134,5.2469e-05,5.47e-06,0.0,0 STARLINK-3154,1 49417U 21104K   23284.20561788  .00000547  00000-0  52469-4 0  9995,2 49417  53.2167 211.4180 0001428  96.9814 263.1340 15.08834737106956,6917.896,95.438,540.749,538.774,0.0
49417.0,STARLINK-3154,PAYLOAD,2023-10-11 12:53:01,15.08835652,0.000145,53.2168,209.9316,95.164,264.9518,0.00014955,2.093e-05,0.0,0 STARLINK-3154,1 49417U 21104K   23284.53682041  .00002093  00000-0  14955-3 0  9992,2 49417  53.2168 209.9316 0001450  95.1640 264.9518 15.08835652105898,6917.894,95.438,540.762,538.756,0.0
49417.0,STARLINK-3154,PAYLOAD,2023-10-12 04:46:52,15.08849518,0.0001595,53.2177,206.9564,107.3274,252.7892,0.00040263,6.127e-05,0.0,0 STARLINK-3154,1 49417U 21104K   23285.19921827  .00006127  00000-0  40263-3 0  9996,2 49417  53.2177 206.9564 0001595 107.3274 252.7892 15.08849518105996,6917.851,95.437,540.82,538.613,0.0
49417.0,STARLINK-3154,PAYLOAD,2023-10-12 22:16:07,15.08844597,0.0001494,53.2174,203.6874,94.8028,265.3135,0.00024189,3.564e-05,0.0,0 STARLINK-3154,1 49417U 21104K   23285.92786099  .00003564  00000-0  24189-3 0  9998,2 49417  53.2174 203.6874 0001494  94.8028 265.3135 15.08844597106102,6917.866,95.437,540.765,538.698,0.0
49417.0,STARLINK-3154,PAYLOAD,2023-10-13 04:37:39,15.08858063,0.0001383,53.2168,202.4973,79.2161,280.8987,0.00063753,9.878e-05,0.0,0 STARLINK-3154,1 49417U 21104K   23286.19281706  .00009878  00000-0  63753-3 0  9997,2 49417  53.2168 202.4973 0001383  79.2161 280.8987 15.08858063107251,6917.825,95.436,540.647,538.733,0.0
49417.0,STARLINK-3154,PAYLOAD,2023-10-13 10:59:12,15.0884876,0.0001424,53.2177,201.3092,79.0441,281.0711,0.00028445,4.243e-05,0.0,0 STARLINK-3154,1 49417U 21104K   23286.45777862  .00004243  00000-0  28445-3 0  9999,2 49417  53.2177 201.3092 0001424  79.0441 281.0711 15.08848760107291,6917.854,95.437,540.704,538.734,0.0
49417.0,STARLINK-3154,PAYLOAD,2023-10-13 22:06:53,15.08847395,0.0001512,53.2172,199.2231,78.6198,281.4964,0.00027338,4.066e-05,0.0,0 STARLINK-3154,1 49417U 21104K   23286.92145626  .00004066  00000-0  27338-3 0  9991,2 49417  53.2172 199.2231 0001512  78.6198 281.4964 15.08847395106250,6917.858,95.437,540.769,538.677,0.0
49417.0,STARLINK-3154,PAYLOAD,2023-10-14 01:17:39,15.08867218,0.0001352,53.2174,198.6307,96.8646,263.25,0.0007277,0.00011321,0.0,0 STARLINK-3154,1 49417U 21104K   23287.05392991  .00011321  00000-0  72770-3 0  9997,2 49417  53.2174 198.6307 0001352  96.8646 263.2500 15.08867218107386,6917.797,95.436,540.597,538.727,0.0
49417.0,STARLINK-3154,PAYLOAD,2023-10-14 10:49:58,15.08853179,0.0001745,53.2173,196.8481,70.0477,290.0703,0.00018613,2.676e-05,0.0,0 STARLINK-3154,1 49417U 21104K   23287.45137132  .00002676  00000-0  18613-3 0  9994,2 49417  53.2173 196.8481 0001745  70.0477 290.0703 15.08853179107441,6917.84,95.437,540.912,538.498,0.0
49417.0,STARLINK-3154,PAYLOAD,2023-10-14 21:57:41,15.08819993,0.0001428,53.2172,194.7671,71.2727,288.842,-0.00045877,-7.578e-05,0.0,0 STARLINK-3154,1 49417U 21104K   23287.91506553 -.00007578  00000-0 -45877-3 0  9992,2 49417  53.2172 194.7671 0001428  71.2727 288.8420 15.08819993106409,6917.942,95.439,540.794,538.819,0.0
49417.0,STARLINK-3154,PAYLOAD,2023-10-14 23:33:04,15.08822439,0.0001548,53.2162,194.4719,76.0835,284.0329,-0.00036774,-6.133e-05,0.0,0 STARLINK-3154,1 49417U 21104K   23287.98130590 -.00006133  00000-0 -36774-3 0  9995,2 49417  53.2162 194.4719 0001548  76.0835 284.0329 15.08822439107523,6917.934,95.439,540.87,538.728,0.0
49417.0,STARLINK-3154,PAYLOAD,2023-10-15 10:40:46,15.08834733,0.0001488,53.2163,192.3892,81.9541,278.162,2.1871e-06,-2.53e-06,0.0,0 STARLINK-3154,1 49417U 21104K   23288.44498464 -.00000253  00000-0  21871-5 0  9994,2 49417  53.2163 192.3892 0001488  81.9541 278.1620 15.08834733107590,6917.896,95.438,540.791,538.732,0.0
49417.0,STARLINK-3154,PAYLOAD,2023-10-15 21:48:28,15.08843218,0.0001345,53.2156,190.3093,85.1818,274.9327,0.00040395,6.147e-05,0.0,0 STARLINK-3154,1 49417U 21104K   23288.90866470  .00006147  00000-0  40395-3 0  9998,2 49417  53.2156 190.3093 0001345  85.1818 274.9327 15.08843218106559,6917.871,95.437,540.666,538.805,0.0
49417.0,STARLINK-3154,PAYLOAD,2023-10-16 02:34:38,15.08865598,0.0001453,53.2156,189.4165,83.1053,277.0105,0.0016937,0.00026789,0.0,0 STARLINK-3154,1 49417U 21104K   23289.10738466  .00026789  00000-0  16937-2 0  9992,2 49417  53.2156 189.4165 0001453  83.1053 277.0105 15.08865598107696,6917.802,95.436,540.672,538.662,0.0
49417.0,STARLINK-3154,PAYLOAD,2023-10-16 10:31:33,15.08864198,0.0001879,53.216,187.9275,74.0141,286.1058,0.0011653,0.00018319,0.0,0 STARLINK-3154,1 49417U 21104K   23289.43858455  .00018319  00000-0  11653-2 0  9999,2 49417  53.2160 187.9275 0001879  74.0141 286.1058 15.08864198107744,6917.806,95.436,540.971,538.372,0.0
49417.0,STARLINK-3154,PAYLOAD,2023-10-16 20:03:52,15.08850104,0.0001452,53.2147,186.1466,76.0311,284.0842,0.0010257,0.00016078,0.0,0 STARLINK-3154,1 49417U 21104K   23289.83602375  .00016078  00000-0  10257-2 0  9990,2 49417  53.2147 186.1466 0001452  76.0311 284.0842 15.08850104106693,6917.85,95.437,540.719,538.71,0.0
49417.0,STARLINK-3154,PAYLOAD,2023-10-17 10:22:20,15.08854348,0.0001342,53.2147,183.4701,74.713,285.401,0.0011043,0.00017337,0.0,0 STARLINK-3154,1 49417U 21104K   23290.43218121  .00017337  00000-0  11043-2 0  9993,2 49417  53.2147 183.4701 0001342  74.7130 285.4010 15.08854348107896,6917.837,95.437,540.63,538.773,0.0
49417.0,STARLINK-3154,PAYLOAD,2023-10-17 23:05:25,15.08854989,0.0002215,53.2137,181.0877,87.7811,272.3434,0.0008054,0.00012558,0.0,0 STARLINK-3154,1 49417U 21104K   23290.96210138  .00012558  00000-0  80540-3 0  9990,2 49417  53.2137 181.0877 0002215  87.7811 272.3434 15.08854989106865,6917.835,95.437,541.232,538.167,0.0
